YAM-7                   
1 60504U 24149AN  26068.71799904  .00009009  00000+0  30984-3 0  9997
2 60504  97.3828 149.4631 0001973 296.5121  63.5918 15.30304554 86835
STARLINK-36107          
1 66979U 25288W   26068.30287971  .00023894  00000+0  87468-3 0  9992
2 66979  43.0022  26.0239 0001332 256.7609 103.3094 15.27591966 15227
